{"fetched_at":"2026-07-09T08:00:51.080Z","source":"https://celestrak.org/NORAD/elements/gp.php?NAME=JILIN&FORMAT=JSON","constellation":"jilin-1-kuanfu","records":[{"OBJECT_NAME":"JILIN-1 KUANFU 01","OBJECT_ID":"2020-003A","EPOCH":"2026-07-08T22:38:51.213984","CLASSIFICATION_TYPE":"U","MEAN_MOTION":15.1084622,"ECCENTRICITY":0.00087222,"INCLINATION":97.5021,"RA_OF_ASC_NODE":263.475,"ARG_OF_PERICENTER":219.7923,"MEAN_ANOMALY":140.2669,"EPHEMERIS_TYPE":0,"NORAD_CAT_ID":45016,"ELEMENT_SET_NO":999,"REV_AT_EPOCH":35861,"BSTAR":0.00013154581,"MEAN_MOTION_DOT":0.00002125,"MEAN_MOTION_DDOT":0},{"OBJECT_NAME":"JILIN-1 KUANFU-01B","OBJECT_ID":"2021-061A","EPOCH":"2026-07-08T23:28:19.937856","CLASSIFICATION_TYPE":"U","MEAN_MOTION":15.09784873,"ECCENTRICITY":0.00066608,"INCLINATION":97.5198,"RA_OF_ASC_NODE":265.7675,"ARG_OF_PERICENTER":0.7723,"MEAN_ANOMALY":359.3515,"EPHEMERIS_TYPE":0,"NORAD_CAT_ID":49003,"ELEMENT_SET_NO":999,"REV_AT_EPOCH":27663,"BSTAR":0.0000470764,"MEAN_MOTION_DOT":0.00000698,"MEAN_MOTION_DDOT":0},{"OBJECT_NAME":"JILIN-1 KUANFU 01C","OBJECT_ID":"2022-048A","EPOCH":"2026-07-08T23:15:23.546592","CLASSIFICATION_TYPE":"U","MEAN_MOTION":15.09577696,"ECCENTRICITY":0.001688,"INCLINATION":97.5252,"RA_OF_ASC_NODE":266.7465,"ARG_OF_PERICENTER":242.9751,"MEAN_ANOMALY":116.9756,"EPHEMERIS_TYPE":0,"NORAD_CAT_ID":52443,"ELEMENT_SET_NO":999,"REV_AT_EPOCH":23048,"BSTAR":0.00013557981,"MEAN_MOTION_DOT":0.0000212,"MEAN_MOTION_DDOT":0},{"OBJECT_NAME":"JILIN-1 KUANFU 02A","OBJECT_ID":"2023-127A","EPOCH":"2026-07-08T22:14:58.710624","CLASSIFICATION_TYPE":"U","MEAN_MOTION":15.10781826,"ECCENTRICITY":0.00099317,"INCLINATION":97.5566,"RA_OF_ASC_NODE":283.4706,"ARG_OF_PERICENTER":261.125,"MEAN_ANOMALY":98.8855,"EPHEMERIS_TYPE":0,"NORAD_CAT_ID":57696,"ELEMENT_SET_NO":999,"REV_AT_EPOCH":15891,"BSTAR":0.00016724784,"MEAN_MOTION_DOT":0.00002714,"MEAN_MOTION_DDOT":0},{"OBJECT_NAME":"JILIN-01 KUANFU 02B 1","OBJECT_ID":"2024-169A","EPOCH":"2026-07-08T22:24:17.971776","CLASSIFICATION_TYPE":"U","MEAN_MOTION":15.09029923,"ECCENTRICITY":0.00020708,"INCLINATION":97.5572,"RA_OF_ASC_NODE":279.1206,"ARG_OF_PERICENTER":6.0399,"MEAN_ANOMALY":354.0854,"EPHEMERIS_TYPE":0,"NORAD_CAT_ID":61189,"ELEMENT_SET_NO":999,"REV_AT_EPOCH":9910,"BSTAR":0.00017579522,"MEAN_MOTION_DOT":0.00002718,"MEAN_MOTION_DDOT":0},{"OBJECT_NAME":"JILIN-01 KUANFU 02B 2","OBJECT_ID":"2024-169B","EPOCH":"2026-07-08T21:54:43.292448","CLASSIFICATION_TYPE":"U","MEAN_MOTION":15.08994282,"ECCENTRICITY":0.00049441,"INCLINATION":97.5568,"RA_OF_ASC_NODE":278.4861,"ARG_OF_PERICENTER":307.6139,"MEAN_ANOMALY":52.4641,"EPHEMERIS_TYPE":0,"NORAD_CAT_ID":61190,"ELEMENT_SET_NO":999,"REV_AT_EPOCH":9910,"BSTAR":0.00014989788,"MEAN_MOTION_DOT":0.00002306,"MEAN_MOTION_DDOT":0},{"OBJECT_NAME":"JILIN-01 KUANFU 02B 3","OBJECT_ID":"2024-169C","EPOCH":"2026-07-08T22:07:49.320768","CLASSIFICATION_TYPE":"U","MEAN_MOTION":15.09031948,"ECCENTRICITY":0.00125686,"INCLINATION":97.5563,"RA_OF_ASC_NODE":278.9278,"ARG_OF_PERICENTER":228.596,"MEAN_ANOMALY":131.4189,"EPHEMERIS_TYPE":0,"NORAD_CAT_ID":61191,"ELEMENT_SET_NO":999,"REV_AT_EPOCH":9910,"BSTAR":0.00016807074,"MEAN_MOTION_DOT":0.000026,"MEAN_MOTION_DDOT":0},{"OBJECT_NAME":"JILIN-01 KUANFU 02B 4","OBJECT_ID":"2024-169D","EPOCH":"2026-07-08T22:58:14.145888","CLASSIFICATION_TYPE":"U","MEAN_MOTION":15.09013659,"ECCENTRICITY":0.00134416,"INCLINATION":97.5525,"RA_OF_ASC_NODE":278.4918,"ARG_OF_PERICENTER":184.1382,"MEAN_ANOMALY":175.9738,"EPHEMERIS_TYPE":0,"NORAD_CAT_ID":61192,"ELEMENT_SET_NO":999,"REV_AT_EPOCH":9911,"BSTAR":0.00012362773,"MEAN_MOTION_DOT":0.00001895,"MEAN_MOTION_DDOT":0},{"OBJECT_NAME":"JILIN-01 KUANFU 02B 5","OBJECT_ID":"2024-169E","EPOCH":"2026-07-08T22:39:46.039104","CLASSIFICATION_TYPE":"U","MEAN_MOTION":15.09046289,"ECCENTRICITY":0.0012636,"INCLINATION":97.5572,"RA_OF_ASC_NODE":279.2718,"ARG_OF_PERICENTER":209.4238,"MEAN_ANOMALY":150.6281,"EPHEMERIS_TYPE":0,"NORAD_CAT_ID":61193,"ELEMENT_SET_NO":999,"REV_AT_EPOCH":9911,"BSTAR":0.00014758597,"MEAN_MOTION_DOT":0.00002276,"MEAN_MOTION_DDOT":0},{"OBJECT_NAME":"JILIN-01 KUANFU 02B 6","OBJECT_ID":"2024-169F","EPOCH":"2026-07-08T23:13:33.341664","CLASSIFICATION_TYPE":"U","MEAN_MOTION":15.09009248,"ECCENTRICITY":0.00151163,"INCLINATION":97.5555,"RA_OF_ASC_NODE":279.1894,"ARG_OF_PERICENTER":243.9527,"MEAN_ANOMALY":116.0146,"EPHEMERIS_TYPE":0,"NORAD_CAT_ID":61194,"ELEMENT_SET_NO":999,"REV_AT_EPOCH":9912,"BSTAR":0.00012112714,"MEAN_MOTION_DOT":0.00001856,"MEAN_MOTION_DDOT":0}]}
