JILIN-1 KUANFU 01       
1 45016U 20003A   26189.94364831  .00002125  00000+0  13155-3 0  9992
2 45016  97.5021 263.4750 0008722 219.7923 140.2669 15.10846220358611
JILIN-1 KUANFU-01B      
1 49003U 21061A   26189.97800854  .00000698  00000+0  47076-4 0  9993
2 49003  97.5198 265.7675 0006660   0.7723 359.3515 15.09784873276639
JILIN-1 KUANFU 01C      
1 52443U 22048A   26189.96902253  .00002120  00000+0  13558-3 0  9995
2 52443  97.5252 266.7465 0016880 242.9751 116.9756 15.09577696230486
JILIN-1 KUANFU 02A      
1 57696U 23127A   26189.92706841  .00002714  00000+0  16725-3 0  9998
2 57696  97.5566 283.4706 0009931 261.1250  98.8855 15.10781826158918
JILIN-01 KUANFU 02B 1   
1 61189U 24169A   26189.93354134  .00002718  00000+0  17580-3 0  9996
2 61189  97.5572 279.1206 0002070   6.0399 354.0854 15.09029923 99103
JILIN-01 KUANFU 02B 2   
1 61190U 24169B   26189.91300107  .00002306  00000+0  14990-3 0  9992
2 61190  97.5568 278.4861 0004944 307.6139  52.4641 15.08994282 99104
JILIN-01 KUANFU 02B 3   
1 61191U 24169C   26189.92209862  .00002600  00000+0  16807-3 0  9996
2 61191  97.5563 278.9278 0012568 228.5960 131.4189 15.09031948 99108
JILIN-01 KUANFU 02B 4   
1 61192U 24169D   26189.95710817  .00001895  00000+0  12363-3 0  9995
2 61192  97.5525 278.4918 0013441 184.1382 175.9738 15.09013659 99112
JILIN-01 KUANFU 02B 5   
1 61193U 24169E   26189.94428286  .00002276  00000+0  14759-3 0  9996
2 61193  97.5572 279.2718 0012636 209.4238 150.6281 15.09046289 99116
JILIN-01 KUANFU 02B 6   
1 61194U 24169F   26189.96774701  .00001856  00000+0  12113-3 0  9990
2 61194  97.5555 279.1894 0015116 243.9527 116.0146 15.09009248 99123
